INMARSAT 4-F2 (SOUTHPA*)
1 28899U 05044A   26115.78030875 -.00000271  00000+0  00000+0 0  9991
2 28899   5.0292  43.7580 0002704 347.7503 246.6499  1.00272238 74999
GSAT-8 (GAGAN/PRN 127)  
1 37605U 11022A   26115.79187233  .00000073  00000+0  00000+0 0  9990
2 37605   1.9975  82.4269 0004907 226.0434 245.4835  1.00271516 52692
LUCH 5A (SDCM/PRN 140)  
1 37951U 11074B   26115.77731796 -.00000057  00000+0  00000+0 0  9991
2 37951   8.6237  74.5624 0002714 302.6373 283.3454  1.00272711 52523
SES-5 (EGNOS/PRN 136)   
1 38652U 12036A   26115.63936997  .00000020  00000+0  00000+0 0  9993
2 38652   0.0576 301.7705 0001980  87.1365  59.8945  1.00271793 43934
GSAT-10 (GAGAN/PRN 128) 
1 38779U 12051B   26115.79741902 -.00000178  00000+0  00000+0 0  9992
2 38779   0.0259 263.9020 0006881 177.5584 142.3912  1.00270064 49571
LUCH 5B (SDCM/PRN 125)  
1 38977U 12061A   26115.63512328 -.00000146  00000+0  00000+0 0  9999
2 38977  10.3736  50.3947 0001856 213.6172 162.0087  1.00271530 49080
ASTRA 5B (EGNOS/PRN 123)
1 39617U 14011B   26115.78563229  .00000123  00000+0  00000+0 0  9994
2 39617   0.0696 306.3881 0002691  64.5101 149.2289  1.00269121 44143
LUCH 5V (SDCM/PRN 141)  
1 39727U 14023A   26115.87664272 -.00000279  00000+0  00000+0 0  9992
2 39727   5.0067  70.2558 0002183 337.6189 216.3664  1.00272089 43831
GSAT-15 (GAGAN/PRN 139) 
1 41028U 15065A   26115.87316801 -.00000272  00000+0  00000+0 0  9991
2 41028   0.0709 257.4869 0003675 143.1679 221.0793  1.00272202 38276
EUTELSAT 117 WEST B (W*)
1 41589U 16038B   26115.68654649 -.00000026  00000+0  00000+0 0  9995
2 41589   0.0104  97.9928 0000021 322.0419 283.8316  1.00271513 36136
SES-15 (WAAS/PRN 133)   
1 42709U 17026A   26115.68411983  .00000046  00000+0  00000+0 0  9991
2 42709   0.0249 331.2396 0000623  35.8861 323.6956  1.00270298  6906
QZS-2 (QZSS/PRN 194)    
1 42738U 17028A   26115.64588199 -.00000262  00000+0  00000+0 0  9996
2 42738  39.5105 243.9205 0740383 270.7988  69.6269  1.00247691  7094
QZS-3 (QZSS/PRN 199)    
1 42917U 17048A   26115.80617237 -.00000362  00000+0  00000+0 0  9992
2 42917   0.0512 184.5731 0001334 195.4377 251.0653  1.00271366 31731
QZS-4 (QZSS/PRN 195)    
1 42965U 17062A   26112.66690654 -.00000326  00000+0  00000+0 0  9996
2 42965  40.1416 344.1915 0746625 270.8161 335.9811  1.00266456 31246
BEIDOU-3 G1 (PRN 130)   
1 43683U 18085A   26115.81554731 -.00000121  00000+0  00000+0 0  9998
2 43683   2.9432  98.7623 0007311 333.2346 235.3783  1.00265382 27532
EUTELSAT 5 WEST B (EGN*)
1 44624U 19067A   26115.84489189 -.00000056  00000+0  00000+0 0  9999
2 44624   0.0688   8.4434 0003140  25.5830 118.9839  1.00271253 23913
BEIDOU-3 G2 (PRN 144)   
1 45344U 20017A   26115.72554666 -.00000152  00000+0  00000+0 0  9993
2 45344   2.7608  46.5062 0002482 346.6079 161.8621  1.00271445 22732
BEIDOU-3 G3 (PRN 143)   
1 45807U 20040A   26115.87420602 -.00000365  00000+0  00000+0 0  9997
2 45807   2.3208  67.2914 0003709 328.9889 242.8620  1.00270758 21542
GALAXY 30 (WAAS/PRN 135)
1 46114U 20056C   26115.68489983  .00000000  00000+0  00000+0 0  9997
2 46114   0.0142 234.9528 0002407 170.7438 289.5604  1.00270886 20762
QZS-1R (QZSS/PRN 196)   
1 49336U 21096A   26115.23905425 -.00000231  00000+0  00000+0 0  9993
2 49336  37.3564  80.3620 0751189 270.8159  83.8411  1.00273350 16482
QZS-6 (QZSS/PRN 200)    
1 62876U 25023A   26115.87316801 -.00000247  00000+0  00000+0 0  9992
2 62876   0.0132  72.2485 0002506 328.8059 217.6377  1.00274283  4434
